{"type":"Feature","properties":{"name":"Bradford Clean Air Zone","source":"City of Bradford Metropolitan District Council","licence":"Open Government Licence v3.0"},"geometry":{"type":"Polygon","coordinates":[[[-1.8025,53.84146],[-1.80273,53.84145],[-1.80289,53.84133],[-1.80662,53.84143],[-1.80804,53.84138],[-1.80969,53.84122],[-1.81238,53.84079],[-1.81394,53.84071],[-1.8145,53.84052],[-1.81546,53.8405],[-1.81567,53.84042],[-1.81566,53.84016],[-1.81542,53.83997],[-1.81377,53.8394],[-1.81173,53.83917],[-1.81159,53.83904],[-1.81152,53.83854],[-1.81205,53.83856],[-1.81205,53.83848],[-1.81152,53.83847],[-1.81161,53.8382],[-1.81424,53.83669],[-1.81537,53.83619],[-1.81648,53.83556],[-1.8185,53.83541],[-1.81752,53.83411],[-1.81728,53.83398],[-1.8166,53.83382],[-1.81656,53.83351],[-1.81325,53.8331],[-1.8121,53.83315],[-1.81125,53.83337],[-1.81094,53.8331],[-1.81147,53.83307],[-1.81188,53.83275],[-1.81339,53.83193],[-1.81431,53.83128],[-1.81468,53.83079],[-1.81488,53.83069],[-1.81517,53.83012],[-1.81535,53.82992],[-1.81682,53.82869],[-1.81699,53.8286],[-1.81736,53.82879],[-1.81791,53.82837],[-1.81768,53.82822],[-1.8179,53.82807],[-1.81759,53.82786],[-1.81813,53.82751],[-1.81791,53.8274],[-1.81838,53.82697],[-1.8182,53.82693],[-1.81828,53.82678],[-1.81874,53.8265],[-1.81772,53.82608],[-1.81664,53.82597],[-1.81176,53.82648],[-1.81129,53.82661],[-1.81119,53.82643],[-1.81016,53.82637],[-1.80936,53.82613],[-1.8084,53.82541],[-1.80798,53.82491],[-1.80796,53.82477],[-1.80665,53.82574],[-1.80585,53.82614],[-1.79976,53.82757],[-1.79825,53.82778],[-1.79786,53.82814],[-1.7971,53.82773],[-1.79541,53.82758],[-1.7948,53.82765],[-1.79466,53.82746],[-1.79358,53.82723],[-1.79303,53.82723],[-1.79102,53.82751],[-1.78968,53.82716],[-1.78807,53.82704],[-1.78789,53.82696],[-1.78753,53.82659],[-1.78597,53.82617],[-1.7851,53.8256],[-1.78466,53.82546],[-1.78314,53.82546],[-1.78181,53.82569],[-1.78129,53.82545],[-1.78193,53.82499],[-1.78335,53.82438],[-1.78344,53.82443],[-1.78373,53.82422],[-1.7837,53.82399],[-1.78325,53.82387],[-1.78311,53.82376],[-1.7832,53.82356],[-1.78344,53.82346],[-1.78373,53.82311],[-1.78335,53.82301],[-1.78356,53.82294],[-1.78369,53.82267],[-1.78358,53.82264],[-1.78384,53.82263],[-1.78321,53.82239],[-1.78331,53.8219],[-1.78266,53.82177],[-1.78185,53.82175],[-1.78179,53.82165],[-1.78152,53.82167],[-1.78155,53.82125],[-1.78238,53.82036],[-1.78266,53.81964],[-1.78273,53.81964],[-1.78267,53.81961],[-1.78271,53.81953],[-1.78206,53.81933],[-1.78155,53.81904],[-1.77972,53.81751],[-1.7792,53.81691],[-1.77898,53.8165],[-1.77902,53.81642],[-1.77896,53.81642],[-1.77902,53.81635],[-1.77895,53.81631],[-1.779,53.81601],[-1.77907,53.81596],[-1.77902,53.81593],[-1.77909,53.81591],[-1.77904,53.81587],[-1.77942,53.81499],[-1.77967,53.81489],[-1.77831,53.81365],[-1.77758,53.81324],[-1.77466,53.81187],[-1.77466,53.81172],[-1.77459,53.81168],[-1.77437,53.81172],[-1.77317,53.81124],[-1.77215,53.80958],[-1.77194,53.80901],[-1.77227,53.80896],[-1.77223,53.80886],[-1.77189,53.80886],[-1.77163,53.80787],[-1.77175,53.80779],[-1.77157,53.80772],[-1.77085,53.80675],[-1.77092,53.8067],[-1.77088,53.80663],[-1.77034,53.80671],[-1.77006,53.8056],[-1.77015,53.80554],[-1.77226,53.80564],[-1.7727,53.80556],[-1.77583,53.80378],[-1.77609,53.80388],[-1.77622,53.80384],[-1.77609,53.80374],[-1.77615,53.80366],[-1.77691,53.80344],[-1.78209,53.80145],[-1.78222,53.80159],[-1.78235,53.80157],[-1.7823,53.80137],[-1.7837,53.80083],[-1.78387,53.80089],[-1.78387,53.80075],[-1.78451,53.80045],[-1.78482,53.80011],[-1.78479,53.79976],[-1.78488,53.7996],[-1.78487,53.79934],[-1.78519,53.79932],[-1.78522,53.79909],[-1.78504,53.79905],[-1.78494,53.79892],[-1.78483,53.7983],[-1.78479,53.79739],[-1.78462,53.79648],[-1.78468,53.79635],[-1.78513,53.79632],[-1.78511,53.79622],[-1.78503,53.79617],[-1.78456,53.79623],[-1.78393,53.7943],[-1.78398,53.7941],[-1.78381,53.79402],[-1.78342,53.79326],[-1.78344,53.79312],[-1.78334,53.7931],[-1.78284,53.79228],[-1.78311,53.79223],[-1.78305,53.79214],[-1.78275,53.79213],[-1.78214,53.79117],[-1.78188,53.7909],[-1.78247,53.79074],[-1.78222,53.79069],[-1.78178,53.79077],[-1.7797,53.78889],[-1.77908,53.78846],[-1.77734,53.78781],[-1.77619,53.7873],[-1.77491,53.78661],[-1.77814,53.78489],[-1.77832,53.78486],[-1.77829,53.7848],[-1.77877,53.78452],[-1.7794,53.78417],[-1.77953,53.78419],[-1.77961,53.78414],[-1.77956,53.78408],[-1.78117,53.78329],[-1.7828,53.78235],[-1.78299,53.78234],[-1.78341,53.7826],[-1.78352,53.78253],[-1.78305,53.78222],[-1.78328,53.78204],[-1.78319,53.78198],[-1.78297,53.78211],[-1.78282,53.78209],[-1.78021,53.78048],[-1.7799,53.78022],[-1.77934,53.77941],[-1.77895,53.77801],[-1.7785,53.77734],[-1.77863,53.7772],[-1.77824,53.77713],[-1.77784,53.77695],[-1.77556,53.77652],[-1.77318,53.77594],[-1.7731,53.77584],[-1.77331,53.77576],[-1.77316,53.77569],[-1.7726,53.77583],[-1.77072,53.7754],[-1.76894,53.77454],[-1.76736,53.77393],[-1.7673,53.77387],[-1.76735,53.77379],[-1.76702,53.77381],[-1.76643,53.7736],[-1.7664,53.77352],[-1.76615,53.77346],[-1.76564,53.77302],[-1.76529,53.77282],[-1.76431,53.77246],[-1.76248,53.77206],[-1.76229,53.77183],[-1.76237,53.77129],[-1.76189,53.77123],[-1.76182,53.77153],[-1.76144,53.77161],[-1.76125,53.77144],[-1.76086,53.7714],[-1.75971,53.77102],[-1.75974,53.77095],[-1.75959,53.7709],[-1.75941,53.77092],[-1.75786,53.7706],[-1.75724,53.77044],[-1.75713,53.77031],[-1.75695,53.77036],[-1.75384,53.76947],[-1.75378,53.76952],[-1.75292,53.7693],[-1.75251,53.76928],[-1.7525,53.76936],[-1.75198,53.76942],[-1.75054,53.77004],[-1.75017,53.77016],[-1.74989,53.77014],[-1.74932,53.76983],[-1.74908,53.76921],[-1.74894,53.76904],[-1.74834,53.76876],[-1.74768,53.76859],[-1.74777,53.7684],[-1.74678,53.76824],[-1.74545,53.7682],[-1.74256,53.76857],[-1.7407,53.76896],[-1.73886,53.76912],[-1.73855,53.76904],[-1.73838,53.76915],[-1.73776,53.76917],[-1.73556,53.76954],[-1.73525,53.76948],[-1.73512,53.76952],[-1.735,53.76969],[-1.7336,53.77023],[-1.73267,53.77078],[-1.73174,53.77081],[-1.73159,53.77097],[-1.73132,53.77099],[-1.73125,53.77107],[-1.73143,53.7712],[-1.73157,53.77148],[-1.73154,53.77157],[-1.73085,53.77205],[-1.73025,53.77275],[-1.72993,53.77292],[-1.73006,53.77297],[-1.73009,53.77306],[-1.72992,53.77357],[-1.72952,53.77429],[-1.72873,53.77509],[-1.72815,53.77548],[-1.72779,53.77552],[-1.72725,53.7754],[-1.72657,53.77444],[-1.72648,53.77443],[-1.7261,53.77398],[-1.72554,53.7737],[-1.72524,53.77385],[-1.7262,53.77475],[-1.72624,53.77483],[-1.72617,53.77488],[-1.72641,53.77501],[-1.72659,53.77527],[-1.72661,53.7755],[-1.72628,53.77606],[-1.72556,53.77637],[-1.72488,53.77684],[-1.72473,53.777],[-1.72478,53.77705],[-1.72269,53.77855],[-1.72233,53.77851],[-1.72231,53.7786],[-1.72248,53.77871],[-1.72211,53.77906],[-1.72173,53.77905],[-1.72171,53.77911],[-1.72192,53.77915],[-1.72199,53.77924],[-1.72164,53.77991],[-1.72159,53.78031],[-1.72148,53.78042],[-1.72155,53.78046],[-1.72143,53.78097],[-1.72124,53.78118],[-1.72132,53.78129],[-1.72097,53.78235],[-1.72086,53.78244],[-1.72084,53.78255],[-1.72093,53.78264],[-1.72085,53.78318],[-1.72063,53.78386],[-1.72035,53.78445],[-1.72025,53.78444],[-1.72021,53.78454],[-1.72028,53.78456],[-1.72016,53.78476],[-1.71995,53.78484],[-1.71991,53.78494],[-1.72002,53.78504],[-1.71961,53.78574],[-1.71951,53.78577],[-1.71946,53.78584],[-1.71952,53.7859],[-1.71912,53.7866],[-1.71895,53.78667],[-1.71905,53.78672],[-1.71881,53.78708],[-1.71776,53.78922],[-1.71762,53.78972],[-1.71765,53.79],[-1.71738,53.79009],[-1.71739,53.79019],[-1.7177,53.79027],[-1.71783,53.7911],[-1.71837,53.79192],[-1.71836,53.79204],[-1.71848,53.79207],[-1.71893,53.79282],[-1.71889,53.79299],[-1.71874,53.79312],[-1.71791,53.79335],[-1.71801,53.79345],[-1.71897,53.79321],[-1.71907,53.79327],[-1.71924,53.79417],[-1.71916,53.79426],[-1.71926,53.79427],[-1.71961,53.79615],[-1.71964,53.79643],[-1.71954,53.79645],[-1.71966,53.79657],[-1.71965,53.79704],[-1.71983,53.79773],[-1.72013,53.79833],[-1.71984,53.79848],[-1.71997,53.79855],[-1.72021,53.79855],[-1.72048,53.79887],[-1.72055,53.79902],[-1.72049,53.79915],[-1.72064,53.79917],[-1.72167,53.80099],[-1.72239,53.8019],[-1.72211,53.80202],[-1.72217,53.8021],[-1.72254,53.80203],[-1.72303,53.80251],[-1.72296,53.80258],[-1.723,53.80263],[-1.72314,53.80262],[-1.72364,53.80311],[-1.72332,53.80324],[-1.72345,53.80328],[-1.72374,53.8032],[-1.7242,53.80366],[-1.72413,53.80371],[-1.72417,53.80376],[-1.7243,53.80375],[-1.72476,53.8042],[-1.72444,53.80434],[-1.72448,53.80438],[-1.72486,53.8043],[-1.72532,53.80475],[-1.72526,53.80481],[-1.72543,53.80486],[-1.72587,53.80527],[-1.7256,53.80541],[-1.72603,53.80542],[-1.72758,53.80686],[-1.72751,53.80695],[-1.72757,53.80701],[-1.72774,53.80702],[-1.72811,53.80743],[-1.72838,53.80726],[-1.72904,53.80743],[-1.72978,53.80775],[-1.73056,53.80824],[-1.73018,53.80854],[-1.73023,53.80857],[-1.73077,53.80839],[-1.73207,53.80929],[-1.73303,53.8097],[-1.73311,53.8099],[-1.73326,53.80989],[-1.73332,53.80979],[-1.73347,53.8098],[-1.73612,53.81088],[-1.73719,53.81108],[-1.73804,53.81114],[-1.73921,53.81109],[-1.73909,53.81115],[-1.73914,53.81124],[-1.73995,53.81105],[-1.74155,53.81094],[-1.74452,53.81101],[-1.74453,53.81113],[-1.74418,53.81131],[-1.74431,53.81137],[-1.74499,53.81107],[-1.74504,53.81103],[-1.74499,53.811],[-1.74537,53.8108],[-1.74591,53.8107],[-1.74697,53.81033],[-1.74939,53.81042],[-1.74961,53.81049],[-1.74973,53.81042],[-1.75098,53.81037],[-1.75294,53.81013],[-1.75324,53.81032],[-1.75346,53.81022],[-1.75335,53.81012],[-1.75341,53.81006],[-1.75647,53.80949],[-1.75715,53.81018],[-1.75694,53.81034],[-1.75702,53.81042],[-1.75722,53.81033],[-1.75738,53.81038],[-1.76053,53.8134],[-1.76135,53.81431],[-1.7619,53.8147],[-1.762,53.81498],[-1.76228,53.81504],[-1.76245,53.81492],[-1.76281,53.81501],[-1.76387,53.8155],[-1.7654,53.81682],[-1.76629,53.81771],[-1.76728,53.81899],[-1.76677,53.81909],[-1.76678,53.81916],[-1.76737,53.81914],[-1.76771,53.81969],[-1.76798,53.82031],[-1.76869,53.82247],[-1.76973,53.82361],[-1.77018,53.82427],[-1.76935,53.82456],[-1.76953,53.82462],[-1.77025,53.82438],[-1.77115,53.82538],[-1.77234,53.826],[-1.77274,53.82629],[-1.77297,53.82656],[-1.77335,53.82742],[-1.77392,53.82839],[-1.7742,53.82874],[-1.77375,53.82895],[-1.77381,53.82901],[-1.77396,53.82896],[-1.77477,53.82964],[-1.77482,53.8301],[-1.77476,53.83037],[-1.77423,53.83099],[-1.77375,53.83125],[-1.77304,53.83128],[-1.77247,53.83189],[-1.77235,53.83187],[-1.77245,53.83191],[-1.77237,53.83204],[-1.77238,53.83237],[-1.7714,53.8339],[-1.77141,53.83426],[-1.77166,53.83454],[-1.77002,53.83414],[-1.76983,53.83419],[-1.76985,53.83425],[-1.77002,53.83423],[-1.77162,53.83464],[-1.77145,53.83495],[-1.77067,53.83516],[-1.77039,53.83548],[-1.77135,53.83646],[-1.77193,53.83684],[-1.77363,53.83679],[-1.77348,53.83705],[-1.77482,53.83735],[-1.77648,53.83812],[-1.78021,53.8391],[-1.78114,53.83919],[-1.78257,53.8392],[-1.78367,53.83934],[-1.78496,53.8394],[-1.78752,53.83994],[-1.78836,53.83998],[-1.78879,53.83991],[-1.78879,53.8398],[-1.789,53.83991],[-1.78931,53.83992],[-1.79215,53.83979],[-1.7929,53.8399],[-1.79458,53.84034],[-1.79622,53.8404],[-1.80251,53.84126],[-1.80243,53.84134],[-1.80164,53.84124],[-1.8025,53.84146]]]}}